{
  "type": "FeatureCollection",
  "features": [
    {
      "type": "Feature",
      "properties": {
        "norad_id": 66618,
        "name": "STARLINK-35970",
        "group": "last-30-days",
        "lat": -2.7210157685471783,
        "lon": -39.55466869777381,
        "alt_km": 431.36694377258937,
        "timestamp": "2025-12-22T22:44:19.649201+00:00",
        "meta_object_name": "STARLINK-35970",
        "meta_object_id": "2025-271B",
        "meta_epoch": "2025-12-22T14:00:01.999872",
        "meta_mean_motion": 15.45535769,
        "meta_eccentricity": 0.00012727,
        "meta_inclination": 53.1605,
        "meta_ra_of_asc_node": 140.1349,
        "meta_arg_of_pericenter": 69.1047,
        "meta_mean_anomaly": 247.2389,
        "meta_ephemeris_type": 0,
        "meta_classification_type": "U",
        "meta_norad_cat_id": 66618,
        "meta_element_set_no": 999,
        "meta_rev_at_epoch": 582,
        "meta_bstar": 0.00028091466,
        "meta_mean_motion_dot": 0.000133,
        "meta_mean_motion_ddot": 0,
        "tle_line1": "1 66618U 25271B   25356.58335648  .00013300  00000+0  28091-3 0  9996",
        "tle_line2": "2 66618  53.1605 140.1349 0001272  69.1047 247.2389 15.45535769  5820"
      },
      "geometry": {
        "type": "Point",
        "coordinates": [
          -39.55466869777381,
          -2.7210157685471783
        ]
      }
    },
    {
      "type": "Feature",
      "properties": {
        "norad_id": 66619,
        "name": "STARLINK-35951",
        "group": "last-30-days",
        "lat": 40.52711200674077,
        "lon": -81.33707330518257,
        "alt_km": 440.4362110862976,
        "timestamp": "2025-12-22T22:44:19.649212+00:00",
        "meta_object_name": "STARLINK-35951",
        "meta_object_id": "2025-271C",
        "meta_epoch": "2025-12-22T14:00:01.999872",
        "meta_mean_motion": 15.42351224,
        "meta_eccentricity": 0.00018581,
        "meta_inclination": 53.1607,
        "meta_ra_of_asc_node": 140.2427,
        "meta_arg_of_pericenter": 101.3739,
        "meta_mean_anomaly": 163.2131,
        "meta_ephemeris_type": 0,
        "meta_classification_type": "U",
        "meta_norad_cat_id": 66619,
        "meta_element_set_no": 999,
        "meta_rev_at_epoch": 582,
        "meta_bstar": -0.084620653,
        "meta_mean_motion_dot": -0.03235133,
        "meta_mean_motion_ddot": 0,
        "tle_line1": "1 66619U 25271C   25356.58335648 -.03235133  00000+0 -84621-1 0  9991",
        "tle_line2": "2 66619  53.1607 140.2427 0001858 101.3739 163.2131 15.42351224  5829"
      },
      "geometry": {
        "type": "Point",
        "coordinates": [
          -81.33707330518257,
          40.52711200674077
        ]
      }
    },
    {
      "type": "Feature",
      "properties": {
        "norad_id": 66620,
        "name": "STARLINK-35936",
        "group": "last-30-days",
        "lat": 50.31009400593441,
        "lon": -156.7759317664547,
        "alt_km": 439.88943199865116,
        "timestamp": "2025-12-22T22:44:19.649223+00:00",
        "meta_object_name": "STARLINK-35936",
        "meta_object_id": "2025-271D",
        "meta_epoch": "2025-12-22T13:04:15.271680",
        "meta_mean_motion": 15.39615745,
        "meta_eccentricity": 7.077e-05,
        "meta_inclination": 53.1609,
        "meta_ra_of_asc_node": 140.5232,
        "meta_arg_of_pericenter": 96.159,
        "meta_mean_anomaly": 263.9495,
        "meta_ephemeris_type": 0,
        "meta_classification_type": "U",
        "meta_norad_cat_id": 66620,
        "meta_element_set_no": 999,
        "meta_rev_at_epoch": 572,
        "meta_bstar": 0.0016364814,
        "meta_mean_motion_dot": 0.00065614,
        "meta_mean_motion_ddot": 0,
        "tle_line1": "1 66620U 25271D   25356.54462120  .00065614  00000+0  16365-2 0  9996",
        "tle_line2": "2 66620  53.1609 140.5232 0000707  96.1590 263.9495 15.39615745  5725"
      },
      "geometry": {
        "type": "Point",
        "coordinates": [
          -156.7759317664547,
          50.31009400593441
        ]
      }
    },
    {
      "type": "Feature",
      "properties": {
        "norad_id": 66621,
        "name": "STARLINK-35847",
        "group": "last-30-days",
        "lat": -5.547893848262552,
        "lon": -37.427963634273304,
        "alt_km": 431.72820418838273,
        "timestamp": "2025-12-22T22:44:19.649236+00:00",
        "meta_object_name": "STARLINK-35847",
        "meta_object_id": "2025-271E",
        "meta_epoch": "2025-12-22T14:00:01.999872",
        "meta_mean_motion": 15.45534916,
        "meta_eccentricity": 0.0001235,
        "meta_inclination": 53.1605,
        "meta_ra_of_asc_node": 140.1275,
        "meta_arg_of_pericenter": 70.8473,
        "meta_mean_anomaly": 249.0364,
        "meta_ephemeris_type": 0,
        "meta_classification_type": "U",
        "meta_norad_cat_id": 66621,
        "meta_element_set_no": 999,
        "meta_rev_at_epoch": 582,
        "meta_bstar": 0.00028611865,
        "meta_mean_motion_dot": 0.00013554,
        "meta_mean_motion_ddot": 0,
        "tle_line1": "1 66621U 25271E   25356.58335648  .00013554  00000+0  28612-3 0  9990",
        "tle_line2": "2 66621  53.1605 140.1275 0001235  70.8473 249.0364 15.45534916  5829"
      },
      "geometry": {
        "type": "Point",
        "coordinates": [
          -37.427963634273304,
          -5.547893848262552
        ]
      }
    },
    {
      "type": "Feature",
      "properties": {
        "norad_id": 66622,
        "name": "STARLINK-35950",
        "group": "last-30-days",
        "lat": -2.764272505327407,
        "lon": 136.70503626441763,
        "alt_km": 448.93718533768333,
        "timestamp": "2025-12-22T22:44:19.649248+00:00",
        "meta_object_name": "STARLINK-35950",
        "meta_object_id": "2025-271F",
        "meta_epoch": "2025-12-22T00:00:00.998784",
        "meta_mean_motion": 15.39697473,
        "meta_eccentricity": 0.0001039,
        "meta_inclination": 53.1594,
        "meta_ra_of_asc_node": 143.2448,
        "meta_arg_of_pericenter": 74.0942,
        "meta_mean_anomaly": 68.4893,
        "meta_ephemeris_type": 0,
        "meta_classification_type": "U",
        "meta_norad_cat_id": 66622,
        "meta_element_set_no": 999,
        "meta_rev_at_epoch": 573,
        "meta_bstar": -0.0035089,
        "meta_mean_motion_dot": -0.00138582,
        "meta_mean_motion_ddot": 0,
        "tle_line1": "1 66622U 25271F   25356.00001156 -.00138582  00000+0 -35089-2 0  9998",
        "tle_line2": "2 66622  53.1594 143.2448 0001039  74.0942  68.4893 15.39697473  5733"
      },
      "geometry": {
        "type": "Point",
        "coordinates": [
          136.70503626441763,
          -2.764272505327407
        ]
      }
    },
    {
      "type": "Feature",
      "properties": {
        "norad_id": 66623,
        "name": "STARLINK-35920",
        "group": "last-30-days",
        "lat": -40.74730646424943,
        "lon": 98.64064635938914,
        "alt_km": 451.765915506714,
        "timestamp": "2025-12-22T22:44:19.649261+00:00",
        "meta_object_name": "STARLINK-35920",
        "meta_object_id": "2025-271G",
        "meta_epoch": "2025-12-22T13:37:41.226528",
        "meta_mean_motion": 15.39650604,
        "meta_eccentricity": 7.073e-05,
        "meta_inclination": 53.1593,
        "meta_ra_of_asc_node": 140.6671,
        "meta_arg_of_pericenter": 71.5086,
        "meta_mean_anomaly": 288.5996,
        "meta_ephemeris_type": 0,
        "meta_classification_type": "U",
        "meta_norad_cat_id": 66623,
        "meta_element_set_no": 999,
        "meta_rev_at_epoch": 572,
        "meta_bstar": 0.00090520981,
        "meta_mean_motion_dot": 0.00036016,
        "meta_mean_motion_ddot": 0,
        "tle_line1": "1 66623U 25271G   25356.56783827  .00036016  00000+0  90521-3 0  9992",
        "tle_line2": "2 66623  53.1593 140.6671 0000707  71.5086 288.5996 15.39650604  5727"
      },
      "geometry": {
        "type": "Point",
        "coordinates": [
          98.64064635938914,
          -40.74730646424943
        ]
      }
    },
    {
      "type": "Feature",
      "properties": {
        "norad_id": 66624,
        "name": "STARLINK-35927",
        "group": "last-30-days",
        "lat": 29.798346955137603,
        "lon": -66.9327298580059,
        "alt_km": 425.6829950995816,
        "timestamp": "2025-12-22T22:44:19.649271+00:00",
        "meta_object_name": "STARLINK-35927",
        "meta_object_id": "2025-271H",
        "meta_epoch": "2025-12-22T14:22:10.220160",
        "meta_mean_motion": 15.45552652,
        "meta_eccentricity": 0.00010088,
        "meta_inclination": 53.1605,
        "meta_ra_of_asc_node": 140.1509,
        "meta_arg_of_pericenter": 78.4785,
        "meta_mean_anomaly": 281.6336,
        "meta_ephemeris_type": 0,
        "meta_classification_type": "U",
        "meta_norad_cat_id": 66624,
        "meta_element_set_no": 999,
        "meta_rev_at_epoch": 573,
        "meta_bstar": 0.0014460605,
        "meta_mean_motion_dot": 0.00070807,
        "meta_mean_motion_ddot": 0,
        "tle_line1": "1 66624U 25271H   25356.59872940  .00070807  00000+0  14461-2 0  9995",
        "tle_line2": "2 66624  53.1605 140.1509 0001008  78.4785 281.6336 15.45552652  5738"
      },
      "geometry": {
        "type": "Point",
        "coordinates": [
          -66.9327298580059,
          29.798346955137603
        ]
      }
    }
  ]
}